QIANFAN-60              
1 62790U 25016F   25349.37226830  .00000039  00000+0  41732-4 0  9994
2 62790  88.9761 102.8039 0014660 340.9714  19.0888 13.50984198 47589
QIANFAN-61              
1 62791U 25016G   25349.33099753  .00000113  00000+0  15711-3 0  9993
2 62791  88.9828 102.9728 0013652 340.8046  19.2589 13.50980983 47596
QIANFAN-62              
1 62792U 25016H   25349.33511781  .00000124  00000+0  17339-3 0  9994
2 62792  88.9774 102.8394 0015035 340.6419  19.4159 13.50977450 47583
QIANFAN-63              
1 62793U 25016J   25349.35981904  .00000125  00000+0  17434-3 0  9992
2 62793  88.9781 102.7886 0015223 346.2327  13.8407 13.50984191 47625
QIANFAN-64              
1 62794U 25016K   25349.32686956  .00000131  00000+0  18487-3 0  9995
2 62794  88.9767 102.7657 0012995 339.6220  20.4410 13.50979308 47618
QIANFAN-65              
1 62795U 25016L   25349.32276550  .00000129  00000+0  18071-3 0  9997
2 62795  88.9764 102.7921 0012867 341.6008  18.4676 13.50984980 47595
QIANFAN-66              
1 62796U 25016M   25349.35156022  .00000151  00000+0  21517-3 0  9996
2 62796  88.9783 102.7598 0013869 336.2030  23.8478 13.50977776 47646
QIANFAN-67              
1 62797U 25016N   25349.35580511  .00000141  00000+0  19975-3 0  9995
2 62797  88.9773 102.7847 0014001 343.6501  16.4197 13.50981948 47616
QIANFAN-68              
1 62798U 25016P   25349.34749535  .00000139  00000+0  19660-3 0  9996
2 62798  88.9777 102.8308 0014006 341.7565  18.3082 13.50984303 47597
QIANFAN-69              
1 62799U 25016Q   25349.36398309  .00000127  00000+0  17840-3 0  9993
2 62799  88.9756 102.6979 0014798 342.6364  17.4279 13.50987143 47630
QIANFAN-70              
1 62800U 25016R   25349.30636081  .00000132  00000+0  18577-3 0  9996
2 62800  88.9777 102.8429 0014178 332.5649  27.4752 13.50977989 47582
QIANFAN-71              
1 62801U 25016S   25349.30218628  .00000129  00000+0  18068-3 0  9991
2 62801  88.9770 102.8227 0014801 346.5944  13.4812 13.50985078 47588
QIANFAN-72              
1 62802U 25016T   25349.31865759  .00000142  00000+0  20107-3 0  9998
2 62802  88.9761 102.8341 0018246 353.1040   6.9857 13.50985098 47571
QIANFAN-73              
1 63159U 25046A   25349.34576181  .00000127  00000+0  17848-3 0  9999
2 63159  88.9762 319.7526 0016632 112.6417 247.6496 13.50977782 47760
QIANFAN-74              
1 63160U 25046B   25349.32914213  .00000147  00000+0  20972-3 0  9995
2 63160  88.9763 319.6430 0001997  77.2151 282.9223 13.50980269 47826
QIANFAN-75              
1 63161U 25046C   25349.31643949  .00000183  00000+0  26458-3 0  9995
2 63161  88.9765 319.8781 0017694 115.6257 244.6725 13.50979398 47693
QIANFAN-76              
1 63162U 25046D   25349.31307957  .00000095  00000+0  12889-3 0  9997
2 63162  88.9763 319.8591 0015229 115.5717 244.7010 13.50970877 47706
QIANFAN-77              
1 63163U 25046E   25349.33763603  .00000371  00000+0  25997-3 0  9995
2 63163  88.9765 317.8421 0016982  73.9584 286.3462 13.96090199 48811
QIANFAN-78              
1 63164U 25046F   25349.35396429  .00000139  00000+0  19693-3 0  9994
2 63164  88.9763 319.7187 0016569 117.8628 242.4204 13.50978021 47789
QIANFAN-79              
1 63165U 25046G   25349.30855853  .00000138  00000+0  19435-3 0  9994
2 63165  88.9766 319.8311 0016290 116.3151 243.9675 13.50979655 47725
QIANFAN-80              
1 63166U 25046H   25349.32508032  .00000163  00000+0  23351-3 0  9991
2 63166  88.9764 319.5361 0015172 119.7933 240.4729 13.50977456 47885
QIANFAN-81              
1 63167U 25046J   25349.30342793  .00000156  00000+0  22290-3 0  9993
2 63167  88.9764 319.6064 0016408 109.7699 250.5224 13.51003229 47834
QIANFAN-82              
1 63168U 25046K   25349.33752891  .00000152  00000+0  21714-3 0  9997
2 63168  88.9764 319.6467 0014414 116.1619 244.1016 13.50976564 47828
QIANFAN-83              
1 63169U 25046L   25349.34370606  .00000178  00000+0  21535-3 0  9998
2 63169  88.9765 319.4173 0015992 103.3160 256.9782 13.61975330 47950
QIANFAN-84              
1 63170U 25046M   25349.29124823  .00000128  00000+0  17982-3 0  9998
2 63170  88.9763 319.7842 0017436 113.9816 246.3163 13.50987368 47741
QIANFAN-85              
1 63171U 25046N   25349.36209104  .00000178  00000+0  25706-3 0  9991
2 63171  88.9764 319.6485 0014790 115.1440 245.1248 13.50977231 47820
QIANFAN-86              
1 63172U 25046P   25349.29635414  .00000155  00000+0  22151-3 0  9997
2 63172  88.9766 319.5176 0012586 118.2729 241.9694 13.50976993 47894
QIANFAN-87              
1 63173U 25046Q   25349.34175199  .00000147  00000+0  20951-3 0  9990
2 63173  88.9762 319.6245 0013329 114.3591 245.8954 13.50974903 47834
QIANFAN-88              
1 63174U 25046R   25349.35806929  .00000165  00000+0  23649-3 0  9991
2 63174  88.9765 319.5774 0013572 121.5222 238.7257 13.50981395 47868
QIANFAN-89              
1 63175U 25046S   25349.32088612  .00000156  00000+0  22278-3 0  9997
2 63175  88.9764 319.7703 0018107 114.3476 245.9568 13.50977091 47753
QIANFAN-90              
1 63176U 25046T   25349.34962426  .00000136  00000+0  19220-3 0  9995
2 63176  88.9764 319.7397 0015079 112.0164 248.2590 13.50977727 47776
QIANFAN-91              
1 66033U 25233A   25349.35154775  .00000033  00000+0  20828-4 0  9992
2 66033  88.9958  61.8817 0017939  38.1877 322.0556 13.76322344  8333
QIANFAN-92              
1 66034U 25233B   25349.33744482  .00000038  00000+0  24740-4 0  9993
2 66034  88.9955  61.8788 0017541  39.4775 320.7666 13.78292049  8335
QIANFAN-93              
1 66035U 25233C   25349.28624645  .00000041  00000+0  27532-4 0  9992
2 66035  88.9959  61.8907 0016193  39.2762 320.9576 13.78057332  8324
QIANFAN-94              
1 66036U 25233D   25349.24475525  .00000043  00000+0  27823-4 0  9995
2 66036  88.9961  61.8852 0016434  36.7959 323.4334 13.81146264  8322
QIANFAN-95              
1 66037U 25233E   25349.30225451  .00000476  00000+0  23639-3 0  9994
2 66037  88.9961  61.7646 0014780  36.7823 323.4375 14.15439366  8393
QIANFAN-96              
1 66038U 25233F   25349.24046236  .00000042  00000+0  29435-4 0  9990
2 66038  88.9973  61.8999 0017332  37.8587 322.3795 13.77255887  8311
QIANFAN-97              
1 66039U 25233G   25349.19933841  .00000042  00000+0  28548-4 0  9996
2 66039  88.9961  61.8979 0017393  43.0817 317.1708 13.78851448  8311
QIANFAN-98              
1 66040U 25233H   25349.22438206  .00000057  00000+0  32744-4 0  9996
2 66040  89.0044  61.8427 0016057  31.3760 328.8370 13.94058783  8355
QIANFAN-99              
1 66041U 25233J   25349.34888539  .00000040  00000+0  27580-4 0  9992
2 66041  88.9961  61.8822 0017107  37.8703 322.3663 13.76946689  8339
QIANFAN-100             
1 66042U 25233K   25349.33145340  .00000050  00000+0  30917-4 0  9997
2 66042  88.9959  61.8237 0017053  42.4165 317.8322 13.87628798  8365
QIANFAN-101             
1 66043U 25233L   25349.33147858  .00000275  00000+0  10748-3 0  9992
2 66043  88.9961  61.7319 0015760  34.7335 325.4885 14.26677525  8416
QIANFAN-102             
1 66044U 25233M   25349.36081404  .00000044  00000+0  28468-4 0  9993
2 66044  88.9955  61.8661 0015684  41.4695 318.7661 13.82091296  8345
QIANFAN-103             
1 66045U 25233N   25349.21821632  .00000042  00000+0  28203-4 0  9998
2 66045  88.9965  61.8987 0016470  37.8587 322.3735 13.78530198  8315
QIANFAN-104             
1 66046U 25233P   25349.37035401  .00000041  00000+0  26303-4 0  9995
2 66046  88.9961  61.8670 0015254  42.4071 317.8273 13.80914527  8344
QIANFAN-105             
1 66047U 25233Q   25349.28372949  .00000078  00000+0  46424-4 0  9993
2 66047  88.9956  61.8540 0016410  38.2654 321.9685 13.96937406  8341
QIANFAN-106             
1 66048U 25233R   25349.32095629  .00000042  00000+0  27042-4 0  9992
2 66048  88.9954  61.8768 0016834  37.6136 322.6206 13.81207448  8336
QIANFAN-107             
1 66049U 25233S   25349.31410641  .00000041  00000+0  27528-4 0  9995
2 66049  88.9959  61.8770 0016152  39.8342 320.4007 13.78283020  8332
QIANFAN-108             
1 66050U 25233T   25349.31641594  .00000039  00000+0  24259-4 0  9995
2 66050  88.9958  61.8771 0016232  41.0774 319.1613 13.80763059  8333
